2022-167F               
1 54687U 22167F   22362.56478794  .00007976  00000+0  49800-3 0  9995
2 54687  97.5382 137.2440 0013412 210.5989 279.8623 15.09676407  2905
2022-167G               
1 54688U 22167G   22362.56241185  .00008165  00000+0  50804-3 0  9995
2 54688  97.5348 137.2365 0013829 211.4365 272.4817 15.09793708  2902
2022-167H               
1 54689U 22167H   22362.56290904  .00004630  00000+0  29080-3 0  9994
2 54689  97.5453 137.2617 0013966 210.7123 273.2989 15.09681161  2904
2022-167J               
1 54690U 22167J   22362.56215748  .00004684  00000+0  29291-3 0  9992
2 54690  97.5331 137.2359 0014241 213.5418 276.7389 15.09831928  2909
2022-167K               
1 54691U 22167K   22362.56321544  .00008183  00000+0  50959-3 0  9998
2 54691  97.5399 137.2516 0014576 211.1636 279.6055 15.09749697  2909
2022-167L               
1 54692U 22167L   22362.56206498  .00004681  00000+0  29261-3 0  9990
2 54692  97.5442 137.2619 0014958 212.5883 277.7088 15.09838937  2907
2022-167M               
1 54693U 22167M   22362.57433213  .00010353  00000+0  65699-3 0  9997
2 54693  97.5415 137.2393 0014360 195.4713 295.1800 15.08994454  2873
2022-167N               
1 54694U 22167N   22362.56099545  .00004742  00000+0  29549-3 0  9992
2 54694  97.5353 137.2433 0015067 214.2744 277.6838 15.09948224  2904
2022-167P               
1 54695U 22167P   22362.56099576  .00004704  00000+0  29311-3 0  9992
2 54695  97.5394 137.2535 0015352 214.1123 278.0005 15.09949695  2904
FALCON 9 R/B            
1 54698U 22168C   22345.32368031  .00002049 -64822-5  00000+0 0  9995
2 54698  29.0000  41.2312 0098300  59.8200  27.0300 16.15592824    07
2022-169A               
1 54699U 22169A   22362.36952632 -.00042627  00000+0 -16838-1 0  9993
2 54699  59.9961 104.1962 0005492 267.0124 208.8808 14.29004441  2284
2022-169B               
1 54700U 22169B   22362.66032997  .00000229  00000+0  14491-3 0  9997
2 54700  59.9961 103.2843 0006580 250.8611 251.6330 14.28670109  2325
2022-169C               
1 54701U 22169C   22362.60645305  .00000131  00000+0  71587-4 0  9997
2 54701  59.9569 101.5452 0095055  53.5934 307.3813 14.49499950  2352
2022-169D               
1 54702U 22169D   22362.13806782  .00000724  00000+0  33803-3 0  9990
2 54702  59.9982 104.9754 0006050 262.6783  97.3579 14.29147565  2261
SZ-14 MODULE            
1 54704U 22060G   22362.57519676  .00024106  00000+0  28064-3 0  9996
2 54704  41.4868 115.4296 0008903 240.8841 295.1484 15.61080903  3513
GALAXY 35 (G-35)        
1 54741U 22170A   22362.60975145  .00000135  00000+0  00000+0 0  9992
2 54741   0.0441 210.3244 0001975 164.5183 151.6685  1.00268706   202
GALAXY 36 (G-36)        
1 54742U 22170B   22362.46627785  .00000135  00000+0  00000+0 0  9991
2 54742   0.0175  29.2919 0001922 236.7965 208.7059  1.00271602    78
METEOSAT-12 (MTG-1)     
1 54743U 22170C   22353.31524981 -.00000002  00000+0  00000+0 0  9994
2 54743   5.5504 217.8990 7131836 181.4542 110.3708  2.25104636   115
ARIANE 5 DEB [SYLDA]    
1 54744U 22170D   22361.60511913  .00023062  00000+0  58643-2 0  9996
2 54744   5.9838 213.2928 7277566 189.3065 140.1630  2.28820153   318
ARIANE 5 R/B            
1 54745U 22170E   22361.54777604  .00004540  00000+0  84527-3 0  9992
2 54745   5.7426 215.2605 7276934 187.1761 149.0086  2.29704568   316
2022-171A               
1 54746U 22171A   22362.08465170 -.00000037  00000+0  00000+0 0  9994
2 54746  34.9940 251.5060 0007205  13.9752 135.8011 15.22469766  2039
2022-171B               
1 54747U 22171B   22362.14538831 -.00000038  00000+0  00000+0 0  9998
2 54747  34.9955 251.0300 0008217  12.7770 146.1997 15.23819405  2015
2022-171C               
1 54748U 22171C   22362.14998451 -.00000037  00000+0  00000+0 0  9996
2 54748  34.9982 251.0649 0007559  57.5010 101.5441 15.22505571  2018
2022-171D               
1 54749U 22171D   22362.14186128 -.00000038  00000+0  00000+0 0  9998
2 54749  34.9955 251.0074 0008219  23.2886 133.1318 15.24201036  2011
2022-171E               
1 54750U 22171E   22362.14821564 -.00000038  00000+0  00000+0 0  9990
2 54750  34.9986 251.0300 0013702  28.6506 131.8028 15.22611519  2001
2022-167Q               
1 54751U 22167Q   22362.55208659  .00006259  00000+0  39087-3 0  9996
2 54751  97.5368 137.2299 0013630 212.3576 215.7050 15.09755306  2568
SHIYAN 21               
1 54752U 22172A   22362.55305407  .00008021  00000+0  29037-3 0  9995
2 54752  36.0011  77.9755 0013024  47.9807  86.9527 15.27753070  1882
SWOT                    
1 54754U 22173A   22362.34399208  .00137981  00000+0  76186-1 0  9990
2 54754  77.5847 309.7997 0004872 339.5411 183.8290 14.10433396  1664
2022-174A               
1 54755U 22174A   22356.18260191  .00000047  00000+0  00000+0 0  9997
2 54755   9.6319 253.0871 1859317 195.2651 337.7567  7.25479946   387
2022-174B               
1 54756U 22174B   22362.02446831  .00000048  00000+0  00000+0 0  9996
2 54756   9.6185 244.6696 1870225 212.0134 135.1480  7.26305539   803
2022-174C               
1 54757U 22174C   22362.34119642  .00000046  00000+0  00000+0 0  9997
2 54757   9.3630 244.2121 1834858 212.4570 134.8107  7.18519840   811
STARLINK-5464           
1 54758U 22175A   22362.58334491 -.01115848  00000+0 -80493-2 0  9993
2 54758  53.2171 252.8649 0001349  31.1818 296.0288 15.75478070  1308
STARLINK-5215           
1 54759U 22175B   22362.66667824 -.01190822  00000+0 -87035-2 0  9996
2 54759  53.2173 252.4463 0001698  32.5828  49.1696 15.75357014  1443
STARLINK-5220           
1 54760U 22175C   22362.58334491 -.01192911  00000+0 -86447-2 0  9997
2 54760  53.2171 252.8626 0000863  24.9503 303.3352 15.75563805  1302
STARLINK-5202           
1 54761U 22175D   22362.58334491 -.01200004  00000+0 -87074-2 0  9998
2 54761  53.2171 252.8630 0000999  62.8182 264.9281 15.75550231  1304
STARLINK-5214           
1 54762U 22175E   22362.58334491 -.01191115  00000+0 -86122-2 0  9994
2 54762  53.2172 252.8587 0000942  84.3349 245.5833 15.75609739  1305
STARLINK-5191           
1 54763U 22175F   22362.58334491 -.01191026  00000+0 -86175-2 0  9994
2 54763  53.2172 252.8592 0000973  71.9103 257.4650 15.75593621  1307
STARLINK-5458           
1 54764U 22175G   22362.58334491 -.01199845  00000+0 -86677-2 0  9999
2 54764  53.2171 252.8570 0001015  64.8550 266.1377 15.75649900  1303
STARLINK-5466           
1 54765U 22175H   22362.58334491 -.01191937  00000+0 -86124-2 0  9991
2 54765  53.2172 252.8570 0001024  60.2942 270.1667 15.75625936  1300
STARLINK-5471           
1 54766U 22175J   22362.58334491 -.01195315  00000+0 -86192-2 0  9991
2 54766  53.2171 252.8548 0000973  69.1107 262.9612 15.75680682  1306
STARLINK-5472           
1 54767U 22175K   22362.58334491 -.01191057  00000+0 -85804-2 0  9990
2 54767  53.2172 252.8527 0000946  71.8608 260.7603 15.75691965  1303
STARLINK-5444           
1 54768U 22175L   22362.75001157 -.01197358  00000+0 -87598-2 0  9992
2 54768  53.2176 252.0239 0005692 272.9278 286.6167 15.75294239  1451
STARLINK-5404           
1 54769U 22175M   22362.58334491 -.01199979  00000+0 -86634-2 0  9995
2 54769  53.2171 252.8557 0001002  59.5322 272.0091 15.75664078  1309
STARLINK-5448           
1 54770U 22175N   22362.75001157 -.01191598  00000+0 -87217-2 0  9993
2 54770  53.2176 252.0218 0001642  40.3516 160.2830 15.75326972  1458
STARLINK-5451           
1 54771U 22175P   22362.75001157 -.01190563  00000+0 -87347-2 0  9999
2 54771  53.2176 252.0246 0001301  63.7418 135.2542 15.75274731  1459
STARLINK-5452           
1 54772U 22175Q   22362.75001157 -.01191858  00000+0 -87186-2 0  9999
2 54772  53.2176 252.0207 0001584  41.7716 159.4176 15.75341229  1455
STARLINK-5453           
1 54773U 22175R   22362.75001157 -.01191644  00000+0 -87268-2 0  9994
2 54773  53.2176 252.0224 0001922  30.7597 169.3236 15.75311575  1454
STARLINK-5454           
1 54774U 22175S   22362.75001157 -.01195411  00000+0 -86988-2 0  9999
2 54774  53.2176 252.0175 0006609 269.5864 293.2341 15.75394549  1452
STARLINK-5465           
1 54775U 22175T   22362.58334491 -.01192177  00000+0 -85513-2 0  9990
2 54775  53.2172 252.8464 0001024  59.2201 276.6296 15.75791705  1306
STARLINK-5470           
1 54776U 22175U   22362.58334491 -.01191255  00000+0 -85260-2 0  9996
2 54776  53.2172 252.8438 0000997  66.4569 271.0092 15.75839128  1308
STARLINK-5468           
1 54777U 22175V   22362.58334491 -.01184904  00000+0 -84880-2 0  9997
2 54777  53.2172 252.8454 0001128 353.5536 342.8384 15.75802739  1431
STARLINK-5450           
1 54778U 22175W   22362.58334491 -.01192789  00000+0 -85232-2 0  9990
2 54778  53.2172 252.8417 0001288  37.7100 300.8146 15.75876198  1436
STARLINK-5447           
1 54779U 22175X   22362.58334491 -.01192899  00000+0 -85312-2 0  9992
2 54779  53.2172 252.8422 0001417  31.5072 306.4955 15.75856038  1438
STARLINK-5449           
1 54780U 22175Y   22362.58334491 -.01189499  00000+0 -84171-2 0  9998
2 54780  53.2172 252.8265 0000936  79.0857 266.9503 15.76091693  1302
STARLINK-5443           
1 54781U 22175Z   22362.58334491 -.01192835  00000+0 -85191-2 0  9990
2 54781  53.2172 252.8400 0001364  34.2009 304.8791 15.75887215  1439
STARLINK-5437           
1 54782U 22175AA  22362.58334491 -.00886358  00000+0 -46116-2 0  9994
2 54782  53.2174 252.6553 0001900 312.8016 121.3999 15.82457701  1307
STARLINK-5439           
1 54783U 22175AB  22362.58334491 -.01184946  00000+0 -84526-2 0  9997
2 54783  53.2172 252.8391 0000900  18.6665 320.9466 15.75900109  1301
STARLINK-5442           
1 54784U 22175AC  22362.58334491 -.01189017  00000+0 -84720-2 0  9998
2 54784  53.2172 252.8377 0000973  72.2513 268.4312 15.75934758  1307
STARLINK-5440           
1 54785U 22175AD  22362.58334491 -.00900878  00000+0 -45607-2 0  9995
2 54785  53.2174 252.6618 0001625  98.7191 330.4975 15.83072840  1305
